36122,XIWANG-1 (HOPE-1),2009,109.39,60.0,P,100.31,Active,1,LEO,PRC,China,Civil,Communications,Long March,1 36122U 09072B   24271.40880727 -.00000021  00000+0  59413-4 0  9993,2 36122 100.3070 227.0440 0006945 226.5466 133.5070 13.16408582710400,13.16408582,0.0006945,LEO
36131,DIRECTV 12,2009,1436.12,5900.0,+,0.02,Active,1,GSO,Kazakhstan,USA,Commercial,Communications,Breeze,1 36131U 09075A   24271.61927323 -.00000119  00000+0  00000+0 0  9994,2 36131   0.0150 151.4849 0000413 139.3206 196.3109  1.00270349 40263,1.00270349,4.13e-05,GEO
36287,BEIDOU-2 G1,2010,1436.14,-1.0,P,2.84,Active,0,GSO,PRC,China,Unknown,Unknown,Unknown,1 36287U 10001A   24271.91702115 -.00000294  00000+0  00000+0 0  9994,2 36287   2.8396  59.2309 0003145 266.0578 152.4332  1.00268726 53876,1.00268726,0.0003145,GSO
36358,RADUGA-1M 2,2010,1436.07,2500.0,+,1.98,Active,1,GSO,Kazakhstan,Russia/USSR,Military,Communications,Proton,1 36358U 10002A   24271.70604838 -.00000199  00000+0  00000+0 0  9998,2 36358   1.9816  87.0375 0002957 129.5326 129.5494  1.00274541 43794,1.00274541,0.0002957,GSO
36395,SDO,2010,1436.05,3100.0,+,33.33,Active,1,GSO,USA,USA,Government,Space Science,Atlas,1 36395U 10005A   24272.01208064 -.00000061  00000+0  00000+0 0  9996,2 36395  33.3344  95.9802 0001394 151.8783  22.0700  1.00274981 53743,1.00274981,0.0001394,GSO
36397,INTELSAT 16 (IS-16),2010,1436.08,2450.0,+,0.02,Active,1,GSO,Kazakhstan,INTELSAT,Commercial,Communications,Proton,1 36397U 10006A   24272.01701793 -.00000260  00000+0  00000+0 0  9997,2 36397   0.0135 105.8610 0002118  93.2138  98.1430  1.00272887 53433,1.00272887,0.0002118,GEO
36402,COSMOS 2460 [GLONASS-M],2010,675.72,1415.0,+,65.75,Active,1,MEO,Kazakhstan,Russia/USSR,Commercial/Military,Navigation (Global or Regional Positioning),Proton,1 36402U 10007C   24271.75811697 -.00000072  00000+0  00000+0 0  9991,2 36402  65.7478 335.6170 0002210 225.6015 131.9010  2.13106305113354,2.13106305,0.000221,MEO
36411,EWS-G2 (GOES 15),2010,1436.11,3175.0,B,0.34,Active,1,GSO,USA,USA,Government,Earth Observation,Delta,1 36411U 10008A   24271.75829073  .00000023  00000+0  00000+0 0  9994,2 36411   0.3379 274.6113 0006340 309.7630 116.9341  1.00270958 53357,1.00270958,0.000634,GEO
36413,YAOGAN-9 01A,2010,107.03,-1.0,+,63.37,Active,1,LEO,PRC,China,Government,Earth Observation,Long March,1 36413U 10009A   24271.45288461  .00000345  00000+0  36089-3 0  9991,2 36413  63.3730 181.2701 0483866  17.1103 344.5611 13.45461582715500,13.45461582,0.0483866,LEO
36414,YAOGAN-9 01B,2010,107.03,-1.0,+,63.37,Active,1,LEO,PRC,China,Government,Earth Observation,Long March,1 36414U 10009B   24271.51115234  .00000360  00000+0  37251-3 0  9995,2 36414  63.3742 180.7329 0484449  16.3505 345.2544 13.45474042715282,13.45474042,0.0484449,LEO
36415,YAOGAN-9 01C,2010,107.03,-1.0,+,63.37,Active,1,LEO,PRC,China,Government,Earth Observation,Long March,1 36415U 10009C   24271.50956835  .00000350  00000+0  36373-3 0  9998,2 36415  63.3738 181.2958 0485237  16.6660 344.9697 13.45472185715442,13.45472185,0.0485237,LEO
36499,ECHOSTAR 14,2010,1436.1,6384.0,+,0.02,Active,1,GSO,Kazakhstan,USA,Commercial,Communications,Proton,1 36499U 10010A   24271.65140656 -.00000016  00000+0  00000+0 0  9998,2 36499   0.0178 214.9893 0002074 332.5755 294.9845  1.00273207 53245,1.00273207,0.0002074,GEO
36508,CRYOSAT 2,2010,99.18,720.0,+,92.02,Active,1,LEO,Kazakhstan,ESA,Government,Earth Observation,Dnepr,1 36508U 10013A   24271.84072399  .00000492  00000+0  12138-3 0  9997,2 36508  92.0210 125.9123 0001152  20.2911 339.8342 14.51903827767052,14.51903827,0.0001152,LEO
36516,SES-1,2010,1436.09,-1.0,+,0.04,Active,1,GSO,Kazakhstan,SES,Commercial,Communications,Proton,1 36516U 10016A   24271.62058580 -.00000130  00000+0  00000+0 0  9992,2 36516   0.0356 297.6149 0002523 249.6215 302.0726  1.00272018 52846,1.00272018,0.0002523,GEO
36519,COSMOS 2463,2010,104.99,-1.0,+,82.97,Active,0,LEO,Russia,Russia/USSR,Unknown,Unknown,Unknown,1 36519U 10017A   24271.47247443  .00000109  00000+0  10302-3 0  9992,2 36519  82.9651 350.9116 0037493  72.7743 298.0083 13.71582362721882,13.71582362,0.0037493,LEO
36581,ASTRA 3B,2010,1436.12,5471.0,+,0.02,Active,1,GSO,French Guiana,SES,Commercial,Communications,Ariane,1 36581U 10021A   24271.74702348  .00000122  00000+0  00000+0 0  9991,2 36581   0.0193  56.6817 0003421 116.4280 126.3454  1.00270673 52584,1.00270673,0.0003421,GEO
36582,COMSATBW-2,2010,1436.11,2440.0,+,0.03,Active,1,GSO,French Guiana,Germany,Military,Communications,Ariane,1 36582U 10021B   24271.67723135  .00000073  00000+0  00000+0 0  9996,2 36582   0.0316 112.5003 0002802  98.6555  52.7864  1.00270828 52667,1.00270828,0.0002802,GEO
36585,NAVSTAR 65 (USA 213),2010,718.0,1630.0,+,54.42,Active,1,MEO,USA,USA,Commercial/Military,Navigation (Global or Regional Positioning),Delta,1 36585U 10022A   24271.27393144 -.00000011  00000+0  00000+0 0  9992,2 36585  54.4152 233.8785 0116062  62.0753 319.2029  2.00556659105005,2.00556659,0.0116062,MEO
36590,BEIDOU-2 G3,2010,1436.09,-1.0,P,3.04,Active,0,GSO,PRC,China,Unknown,Unknown,Unknown,1 36590U 10024A   24271.70604838 -.00000149  00000+0  00000+0 0  9995,2 36590   3.0378  61.6922 0004532 348.6729 290.4422  1.00272164 52479,1.00272164,0.0004532,GSO
36592,BADR-5,2010,1436.09,5420.0,+,0.04,Active,1,GSO,Kazakhstan,Arabsat,Government,Communications,Proton,1 36592U 10025A   24271.74702348  .00000129  00000+0  00000+0 0  9994,2 36592   0.0412 126.6343 0005480  55.5314 119.7624  1.00272499 46924,1.00272499,0.000548,GEO
36596,SJ-12,2010,95.57,-1.0,+,97.77,Active,1,LEO,PRC,China,Government,Technology Development,Long March,1 36596U 10027A   24272.08621650  .00011123  00000+0  75126-3 0  9995,2 36596  97.7663 267.5469 0010080  85.9814 274.2564 15.06721011780113,15.06721011,0.001008,LEO
36605,TANDEM-X,2010,94.79,1350.0,+,97.45,Active,1,LEO,Kazakhstan,Germany,Government,Earth Observation,Dnepr,1 36605U 10030A   24271.46714599  .00004317  00000+0  20865-3 0  9993,2 36605  97.4472 277.1722 0001769  89.9396 270.2041 15.19150508791345,15.19150508,0.0001769,LEO
36744,COMS 1,2010,1436.12,2460.0,+,3.21,Active,1,GSO,French Guiana,South Korea,Government,Earth Observation/Communications,Ariane,1 36744U 10032A   24271.70008088 -.00000358  00000+0  00000+0 0  9992,2 36744   3.2120  83.2884 0000947 132.2597 171.5762  1.00269838 44796,1.00269838,9.47e-05,GSO
36745,ARABSAT-5A,2010,1436.04,4940.0,+,0.06,Active,1,GSO,French Guiana,Arabsat,Government,Communications,Ariane,1 36745U 10032B   24271.69563498  .00000138  00000+0  00000+0 0  9997,2 36745   0.0569  32.9108 0004301 134.1931 120.8289  1.00265790 52355,1.0026579,0.0004301,GEO
36792,ECHOSTAR 15,2010,1436.1,5521.0,+,0.01,Active,1,GSO,Kazakhstan,USA,Commercial,Communications,Proton,1 36792U 10034A   24271.44778031 -.00000297  00000+0  00000+0 0  9992,2 36792   0.0122 122.1997 0002138  44.5486 299.5512  1.00271881 52031,1.00271881,0.0002138,GEO
36795,CARTOSAT-2B,2010,97.38,694.0,+,97.85,Active,1,LEO,India,India,Government,Earth Observation,PSLV,1 36795U 10035A   24272.06635012  .00002397  00000+0  33332-3 0  9996,2 36795  97.8493 327.7058 0012896  67.7415 292.5163 14.78691870767256,14.7869187,0.0012896,LEO
36797,AISSAT 1,2010,96.5,6.0,+,98.17,Active,1,LEO,India,Norway,Government,Communications,PSLV,1 36797U 10035C   24271.57842091  .00006502  00000+0  64309-3 0  9990,2 36797  98.1699 136.9112 0009289 340.1331  19.9523 14.92223451770435,14.92223451,0.0009289,LEO
36798,ALSAT 2A,2010,97.79,130.0,+,97.78,Active,1,LEO,India,Algeria,Government,Earth Observation,PSLV,1 36798U 10035D   24272.06545125  .00002275  00000+0  36499-3 0  9996,2 36798  97.7814 290.0703 0002093  91.8872 268.2576 14.72579686761444,14.72579686,0.0002093,LEO
36799,TISAT 1,2010,95.63,-1.0,+,98.07,Active,0,LEO,India,Switzerland,Unknown,Unknown,Unknown,1 36799U 10035E   24270.61104352  .00019914  00000+0  13778-2 0  9991,2 36799  98.0727 164.5755 0001961 232.8268 127.2778 15.05729752772508,15.05729752,0.0001961,LEO
36828,BEIDOU-2 IGSO-1,2010,1436.37,4200.0,+,54.25,Active,1,GSO,PRC,China,Government/Military,Navigation (Global or Regional Positioning),Long March,1 36828U 10036A   24271.42432863 -.00000154  00000+0  00000+0 0  9994,2 36828  54.2542 168.6440 0040841 204.4251 251.6472  1.00252785 51918,1.00252785,0.0040841,GSO
36830,NILESAT 201,2010,1436.11,3200.0,+,0.02,Active,1,GSO,French Guiana,Egypt,Government,Communications,Ariane,1 36830U 10037A   24271.71733510 -.00000073  00000+0  00000+0 0  9993,2 36830   0.0157 176.3244 0005596  10.8790  71.0446  1.00271488 52079,1.00271488,0.0005596,GEO
