OBJECT_NAME,OBJECT_ID,EPOCH,MEAN_MOTION,ECCENTRICITY,INCLINATION,RA_OF_ASC_NODE,ARG_OF_PERICENTER,MEAN_ANOMALY,EPHEMERIS_TYPE,CLASSIFICATION_TYPE,NORAD_CAT_ID,ELEMENT_SET_NO,REV_AT_EPOCH,BSTAR,MEAN_MOTION_DOT,MEAN_MOTION_DDOT
XIWANG-1 (HOPE-1),2009-072B,2024-09-27T09:48:40.948128,13.16408582,.0006945,100.3070,227.0440,226.5466,133.5070,0,U,36122,999,71040,.59413E-4,-.21E-6,0
DIRECTV 12,2009-075A,2024-09-27T14:51:45.207072,1.00270349,.0000413,0.0150,151.4849,139.3206,196.3109,0,U,36131,999,4026,0,-.119E-5,0
BEIDOU-2 G1,2010-001A,2024-09-27T22:00:30.627360,1.00268726,.0003145,2.8396,59.2309,266.0578,152.4332,0,U,36287,999,5387,0,-.294E-5,0
RADUGA-1M 2,2010-002A,2024-09-27T16:56:42.580032,1.00274541,.0002957,1.9816,87.0375,129.5326,129.5494,0,U,36358,999,4379,0,-.199E-5,0
SDO,2010-005A,2024-09-28T00:17:23.767296,1.00274981,.0001394,33.3344,95.9802,151.8783,22.0700,0,U,36395,999,5374,0,-.61E-6,0
INTELSAT 16 (IS-16),2010-006A,2024-09-28T00:24:30.349152,1.00272887,.0002118,0.0135,105.8610,93.2138,98.1430,0,U,36397,999,5343,0,-.26E-5,0
COSMOS 2460 [GLONASS-M],2010-007C,2024-09-27T18:11:41.306208,2.13106305,.000221,65.7478,335.6170,225.6015,131.9010,0,U,36402,999,11335,0,-.72E-6,0
EWS-G2 (GOES 15),2010-008A,2024-09-27T18:11:56.319072,1.00270958,.000634,0.3379,274.6113,309.7630,116.9341,0,U,36411,999,5335,0,.23E-6,0
YAOGAN-9 01A,2010-009A,2024-09-27T10:52:09.230304,13.45461582,.0483866,63.3730,181.2701,17.1103,344.5611,0,U,36413,999,71550,.36089E-3,.345E-5,0
YAOGAN-9 01B,2010-009B,2024-09-27T12:16:03.562176,13.45474042,.0484449,63.3742,180.7329,16.3505,345.2544,0,U,36414,999,71528,.37251E-3,.36E-5,0
YAOGAN-9 01C,2010-009C,2024-09-27T12:13:46.705440,13.45472185,.0485237,63.3738,181.2958,16.6660,344.9697,0,U,36415,999,71544,.36373E-3,.35E-5,0
ECHOSTAR 14,2010-010A,2024-09-27T15:38:01.526784,1.00273207,.0002074,0.0178,214.9893,332.5755,294.9845,0,U,36499,999,5324,0,-.16E-6,0
CRYOSAT 2,2010-013A,2024-09-27T20:10:38.552736,14.51903827,.0001152,92.0210,125.9123,20.2911,339.8342,0,U,36508,999,76705,.12138E-3,.492E-5,0
SES-1,2010-016A,2024-09-27T14:53:38.613120,1.00272018,.0002523,0.0356,297.6149,249.6215,302.0726,0,U,36516,999,5284,0,-.13E-5,0
COSMOS 2463,2010-017A,2024-09-27T11:20:21.790752,13.71582362,.0037493,82.9651,350.9116,72.7743,298.0083,0,U,36519,999,72188,.10302E-3,.109E-5,0
ASTRA 3B,2010-021A,2024-09-27T17:55:42.828672,1.00270673,.0003421,0.0193,56.6817,116.4280,126.3454,0,U,36581,999,5258,0,.122E-5,0
COMSATBW-2,2010-021B,2024-09-27T16:15:12.788640,1.00270828,.0002802,0.0316,112.5003,98.6555,52.7864,0,U,36582,999,5266,0,.73E-6,0
NAVSTAR 65 (USA 213),2010-022A,2024-09-27T06:34:27.676416,2.00556659,.0116062,54.4152,233.8785,62.0753,319.2029,0,U,36585,999,10500,0,-.11E-6,0
BEIDOU-2 G3,2010-024A,2024-09-27T16:56:42.580032,1.00272164,.0004532,3.0378,61.6922,348.6729,290.4422,0,U,36590,999,5247,0,-.149E-5,0
BADR-5,2010-025A,2024-09-27T17:55:42.828672,1.00272499,.000548,0.0412,126.6343,55.5314,119.7624,0,U,36592,999,4692,0,.129E-5,0
SJ-12,2010-027A,2024-09-28T02:04:09.105600,15.06721011,.001008,97.7663,267.5469,85.9814,274.2564,0,U,36596,999,78011,.75126E-3,.11123E-3,0
TANDEM-X,2010-030A,2024-09-27T11:12:41.413536,15.19150508,.0001769,97.4472,277.1722,89.9396,270.2041,0,U,36605,999,79134,.20865E-3,.4317E-4,0
COMS 1,2010-032A,2024-09-27T16:48:06.988032,1.00269838,.0000947,3.2120,83.2884,132.2597,171.5762,0,U,36744,999,4479,0,-.358E-5,0
ARABSAT-5A,2010-032B,2024-09-27T16:41:42.862272,1.00265790,.0004301,0.0569,32.9108,134.1931,120.8289,0,U,36745,999,5235,0,.138E-5,0
ECHOSTAR 15,2010-034A,2024-09-27T10:44:48.218784,1.00271881,.0002138,0.0122,122.1997,44.5486,299.5512,0,U,36792,999,5203,0,-.297E-5,0
CARTOSAT-2B,2010-035A,2024-09-28T01:35:32.650368,14.78691870,.0012896,97.8493,327.7058,67.7415,292.5163,0,U,36795,999,76725,.33332E-3,.2397E-4,0
AISSAT 1,2010-035C,2024-09-27T13:52:55.566624,14.92223451,.0009289,98.1699,136.9112,340.1331,19.9523,0,U,36797,999,77043,.64309E-3,.6502E-4,0
ALSAT 2A,2010-035D,2024-09-28T01:34:14.988000,14.72579686,.0002093,97.7814,290.0703,91.8872,268.2576,0,U,36798,999,76144,.36499E-3,.2275E-4,0
TISAT 1,2010-035E,2024-09-26T14:39:54.160128,15.05729752,.0001961,98.0727,164.5755,232.8268,127.2778,0,U,36799,999,77250,.13778E-2,.19914E-3,0
BEIDOU-2 IGSO-1,2010-036A,2024-09-27T10:11:01.993632,1.00252785,.0040841,54.2542,168.6440,204.4251,251.6472,0,U,36828,999,5191,0,-.154E-5,0
NILESAT 201,2010-037A,2024-09-27T17:12:57.752640,1.00271488,.0005596,0.0157,176.3244,10.8790,71.0446,0,U,36830,999,5207,0,-.73E-6,0
